{
  "type": "FeatureCollection",
  "features": [
    {
      "type": "Feature",
      "properties": {
        "norad_id": 31215,
        "name": "FENGYUN 1C DEB",
        "group": "fengyun-1c-debris",
        "lat": -9.84054535822589,
        "lon": -165.46627029844205,
        "alt_km": 740.4904337151529,
        "timestamp": "2025-12-14T18:52:55.784500+00:00",
        "meta_object_name": "FENGYUN 1C DEB",
        "meta_object_id": "1999-025BKV",
        "meta_epoch": "2025-12-13T19:28:50.397888",
        "meta_mean_motion": 14.33795685,
        "meta_eccentricity": 0.00699696,
        "meta_inclination": 99.0728,
        "meta_ra_of_asc_node": 191.9234,
        "meta_arg_of_pericenter": 321.2042,
        "meta_mean_anomaly": 38.4128,
        "meta_ephemeris_type": 0,
        "meta_classification_type": "U",
        "meta_norad_cat_id": 31215,
        "meta_element_set_no": 999,
        "meta_rev_at_epoch": 96541,
        "meta_bstar": 0.0012136919,
        "meta_mean_motion_dot": 3.421e-05,
        "meta_mean_motion_ddot": 0,
        "tle_line1": "1 31215U 99025BKV 25347.81169442  .00003421  00000+0  12137-2 0  9998",
        "tle_line2": "2 31215  99.0728 191.9234 0069969 321.2042  38.4128 14.33795685965413"
      },
      "geometry": {
        "type": "Point",
        "coordinates": [
          -165.46627029844205,
          -9.84054535822589
        ]
      }
    },
    {
      "type": "Feature",
      "properties": {
        "norad_id": 31217,
        "name": "FENGYUN 1C DEB",
        "group": "fengyun-1c-debris",
        "lat": 22.888190279341508,
        "lon": -7.063195123110833,
        "alt_km": 879.8097688067464,
        "timestamp": "2025-12-14T18:52:55.784510+00:00",
        "meta_object_name": "FENGYUN 1C DEB",
        "meta_object_id": "1999-025BKX",
        "meta_epoch": "2025-12-11T06:04:08.976288",
        "meta_mean_motion": 14.17533133,
        "meta_eccentricity": 0.00996226,
        "meta_inclination": 98.6409,
        "meta_ra_of_asc_node": 353.1806,
        "meta_arg_of_pericenter": 164.2918,
        "meta_mean_anomaly": 196.1386,
        "meta_ephemeris_type": 0,
        "meta_classification_type": "U",
        "meta_norad_cat_id": 31217,
        "meta_element_set_no": 999,
        "meta_rev_at_epoch": 96327,
        "meta_bstar": 0.00084694913,
        "meta_mean_motion_dot": 1.763e-05,
        "meta_mean_motion_ddot": 0,
        "tle_line1": "1 31217U 99025BKX 25345.25288167  .00001763  00000+0  84695-3 0  9998",
        "tle_line2": "2 31217  98.6409 353.1806 0099622 164.2918 196.1386 14.17533133963279"
      },
      "geometry": {
        "type": "Point",
        "coordinates": [
          -7.063195123110833,
          22.888190279341508
        ]
      }
    },
    {
      "type": "Feature",
      "properties": {
        "norad_id": 31218,
        "name": "FENGYUN 1C DEB",
        "group": "fengyun-1c-debris",
        "lat": -33.87244419874617,
        "lon": 105.13856954899128,
        "alt_km": 655.0017523783872,
        "timestamp": "2025-12-14T18:52:55.784520+00:00",
        "meta_object_name": "FENGYUN 1C DEB",
        "meta_object_id": "1999-025BKY",
        "meta_epoch": "2025-12-12T13:13:17.675328",
        "meta_mean_motion": 14.72463457,
        "meta_eccentricity": 0.00116907,
        "meta_inclination": 98.8398,
        "meta_ra_of_asc_node": 96.712,
        "meta_arg_of_pericenter": 34.9394,
        "meta_mean_anomaly": 325.2576,
        "meta_ephemeris_type": 0,
        "meta_classification_type": "U",
        "meta_norad_cat_id": 31218,
        "meta_element_set_no": 999,
        "meta_rev_at_epoch": 97080,
        "meta_bstar": 0.0059847338,
        "meta_mean_motion_dot": 0.00038158,
        "meta_mean_motion_ddot": 0,
        "tle_line1": "1 31218U 99025BKY 25346.55089902  .00038158  00000+0  59847-2 0  9997",
        "tle_line2": "2 31218  98.8398  96.7120 0011690  34.9394 325.2576 14.72463457970803"
      },
      "geometry": {
        "type": "Point",
        "coordinates": [
          105.13856954899128,
          -33.87244419874617
        ]
      }
    },
    {
      "type": "Feature",
      "properties": {
        "norad_id": 31219,
        "name": "FENGYUN 1C DEB",
        "group": "fengyun-1c-debris",
        "lat": 64.74685571256312,
        "lon": -160.98155806497064,
        "alt_km": 809.5004598010091,
        "timestamp": "2025-12-14T18:52:55.784530+00:00",
        "meta_object_name": "FENGYUN 1C DEB",
        "meta_object_id": "1999-025BKZ",
        "meta_epoch": "2025-12-12T11:59:30.173856",
        "meta_mean_motion": 14.13784751,
        "meta_eccentricity": 0.00788542,
        "meta_inclination": 99.2853,
        "meta_ra_of_asc_node": 356.3512,
        "meta_arg_of_pericenter": 177.9372,
        "meta_mean_anomaly": 182.2139,
        "meta_ephemeris_type": 0,
        "meta_classification_type": "U",
        "meta_norad_cat_id": 31219,
        "meta_element_set_no": 999,
        "meta_rev_at_epoch": 95566,
        "meta_bstar": 0.0019825949,
        "meta_mean_motion_dot": 3.819e-05,
        "meta_mean_motion_ddot": 0,
        "tle_line1": "1 31219U 99025BKZ 25346.49965479  .00003819  00000+0  19826-2 0  9992",
        "tle_line2": "2 31219  99.2853 356.3512 0078854 177.9372 182.2139 14.13784751955665"
      },
      "geometry": {
        "type": "Point",
        "coordinates": [
          -160.98155806497064,
          64.74685571256312
        ]
      }
    },
    {
      "type": "Feature",
      "properties": {
        "norad_id": 31222,
        "name": "FENGYUN 1C DEB",
        "group": "fengyun-1c-debris",
        "lat": -20.86122661405556,
        "lon": -124.34015281185113,
        "alt_km": 666.0958847431739,
        "timestamp": "2025-12-14T18:52:55.784540+00:00",
        "meta_object_name": "FENGYUN 1C DEB",
        "meta_object_id": "1999-025BLC",
        "meta_epoch": "2025-12-13T22:45:43.612416",
        "meta_mean_motion": 14.97842728,
        "meta_eccentricity": 0.01705088,
        "meta_inclination": 98.6119,
        "meta_ra_of_asc_node": 58.0464,
        "meta_arg_of_pericenter": 65.6415,
        "meta_mean_anomaly": 296.2498,
        "meta_ephemeris_type": 0,
        "meta_classification_type": "U",
        "meta_norad_cat_id": 31222,
        "meta_element_set_no": 999,
        "meta_rev_at_epoch": 1,
        "meta_bstar": 0.00072699414,
        "meta_mean_motion_dot": 0.00011484,
        "meta_mean_motion_ddot": 0,
        "tle_line1": "1 31222U 99025BLC 25347.94842144  .00011484  00000+0  72699-3 0  9995",
        "tle_line2": "2 31222  98.6119  58.0464 0170508  65.6415 296.2498 14.97842728    14"
      },
      "geometry": {
        "type": "Point",
        "coordinates": [
          -124.34015281185113,
          -20.86122661405556
        ]
      }
    },
    {
      "type": "Feature",
      "properties": {
        "norad_id": 31223,
        "name": "FENGYUN 1C DEB",
        "group": "fengyun-1c-debris",
        "lat": 35.49619283398528,
        "lon": 61.48904461786139,
        "alt_km": 1023.9437601723375,
        "timestamp": "2025-12-14T18:52:55.784551+00:00",
        "meta_object_name": "FENGYUN 1C DEB",
        "meta_object_id": "1999-025BLD",
        "meta_epoch": "2025-12-12T15:38:41.211168",
        "meta_mean_motion": 13.77243992,
        "meta_eccentricity": 0.02425608,
        "meta_inclination": 99.0053,
        "meta_ra_of_asc_node": 232.9707,
        "meta_arg_of_pericenter": 41.0282,
        "meta_mean_anomaly": 320.8838,
        "meta_ephemeris_type": 0,
        "meta_classification_type": "U",
        "meta_norad_cat_id": 31223,
        "meta_element_set_no": 999,
        "meta_rev_at_epoch": 92727,
        "meta_bstar": 0.0033832955,
        "meta_mean_motion_dot": 4.128e-05,
        "meta_mean_motion_ddot": 0,
        "tle_line1": "1 31223U 99025BLD 25346.65186587  .00004128  00000+0  33833-2 0  9998",
        "tle_line2": "2 31223  99.0053 232.9707 0242560  41.0282 320.8838 13.77243992927271"
      },
      "geometry": {
        "type": "Point",
        "coordinates": [
          61.48904461786139,
          35.49619283398528
        ]
      }
    },
    {
      "type": "Feature",
      "properties": {
        "norad_id": 31224,
        "name": "FENGYUN 1C DEB",
        "group": "fengyun-1c-debris",
        "lat": 10.267186951329393,
        "lon": -20.928471846483536,
        "alt_km": 890.5114018801796,
        "timestamp": "2025-12-14T18:52:55.784561+00:00",
        "meta_object_name": "FENGYUN 1C DEB",
        "meta_object_id": "1999-025BLE",
        "meta_epoch": "2025-12-07T05:24:06.867936",
        "meta_mean_motion": 14.28881555,
        "meta_eccentricity": 0.01576901,
        "meta_inclination": 98.3695,
        "meta_ra_of_asc_node": 333.3388,
        "meta_arg_of_pericenter": 179.1537,
        "meta_mean_anomaly": 197.3036,
        "meta_ephemeris_type": 0,
        "meta_classification_type": "U",
        "meta_norad_cat_id": 31224,
        "meta_element_set_no": 999,
        "meta_rev_at_epoch": 69172,
        "meta_bstar": 0.00051563663,
        "meta_mean_motion_dot": 1.444e-05,
        "meta_mean_motion_ddot": 0,
        "tle_line1": "1 31224U 99025BLE 25341.22507949  .00001444  00000+0  51564-3 0  9996",
        "tle_line2": "2 31224  98.3695 333.3388 0157690 179.1537 197.3036 14.28881555691727"
      },
      "geometry": {
        "type": "Point",
        "coordinates": [
          -20.928471846483536,
          10.267186951329393
        ]
      }
    }
  ]
}